[{"OBJECT_NAME":"STARLINK-4090","OBJECT_ID":"2022-083AK","EPOCH":"2026-03-09T11:42:35.136288","MEAN_MOTION":15.08839328,"ECCENTRICITY":0.00015603,"INCLINATION":53.2185,"RA_OF_ASC_NODE":165.0323,"ARG_OF_PERICENTER":116.6802,"MEAN_ANOMALY":243.435,"EPHEMERIS_TYPE":0,"CLASSIFICATION_TYPE":"U","NORAD_CAT_ID":53165,"ELEMENT_SET_NO":999,"REV_AT_EPOCH":20133,"BSTAR":3.9889519e-5,"MEAN_MOTION_DOT":3.47e-6,"MEAN_MOTION_DDOT":0},{"OBJECT_NAME":"STEP 2","OBJECT_ID":"1994-029A","EPOCH":"2026-03-09T19:35:47.124096","MEAN_MOTION":14.90069818,"ECCENTRICITY":0.0082455,"INCLINATION":81.9356,"RA_OF_ASC_NODE":275.268,"ARG_OF_PERICENTER":225.1907,"MEAN_ANOMALY":134.2589,"EPHEMERIS_TYPE":0,"CLASSIFICATION_TYPE":"U","NORAD_CAT_ID":23105,"ELEMENT_SET_NO":999,"REV_AT_EPOCH":70508,"BSTAR":0.00037800709,"MEAN_MOTION_DOT":3.917e-5,"MEAN_MOTION_DDOT":0}]
